EPOCH,NORAD_CAT_ID,MEAN_MOTION,ECCENTRICITY,INCLINATION,RA_OF_ASC_NODE,ARG_OF_PERICENTER,MEAN_ANOMALY,MEAN_MOTION_DOT,BSTAR,TLE_LINE1,TLE_LINE2
2024-12-06 16:17:15.702144,50803,15.23042946,0.00011350,53.2146,63.8959,17.0741,343.0296,0.00207461,0.00847000000000,1 50803U 22001A   24341.67865396  .00207461  00000-0  84700-2 0  9996,2 50803  53.2146  63.8959 0001135  17.0741 343.0296 15.23042946161280
2024-12-06 16:17:15.702144,50803,15.23042946,0.00011350,53.2146,63.8959,17.0741,343.0296,0.00207461,0.00847000000000,1 50803U 22001A   24341.67865396  .00207461  00000-0  84700-2 0  9996,2 50803  53.2146  63.8959 0001135  17.0741 343.0296 15.23042946162551
2024-12-07 04:00:01.999584,50803,15.24617406,0.00010100,53.2125,61.6569,93.8125,64.6660,0.00975423,0.03596600000000,1 50803U 22001A   24342.16668981  .00975423  00000-0  35966-1 0  9991,2 50803  53.2125  61.6569 0001010  93.8125  64.6660 15.24617406162620
2024-12-07 14:00:01.999872,50803,15.25360668,0.00012520,53.2124,59.7412,76.3067,210.9339,0.00963262,0.03477700000000,1 50803U 22001A   24342.58335648  .00963262  00000-0  34777-1 0  9995,2 50803  53.2124  59.7412 0001252  76.3067 210.9339 15.25360668  5837
2024-12-07 20:00:01.999872,50803,15.25832196,0.00010670,53.2120,58.5888,77.5604,143.4619,0.00910475,0.03255700000000,1 50803U 22001A   24342.83335648  .00910475  00000-0  32557-1 0  9995,2 50803  53.2120  58.5888 0001067  77.5604 143.4619 15.25832196162724
2024-12-07 22:00:01.999584,50803,15.25976622,0.00011890,53.2121,58.2042,82.7684,236.2762,0.00914106,0.03253600000000,1 50803U 22001A   24342.91668981  .00914106  00000-0  32536-1 0  9995,2 50803  53.2121  58.2042 0001189  82.7684 236.2762 15.25976622  5791
2024-12-08 12:00:00.999648,50803,15.27005349,0.00011540,53.2119,55.5144,77.1886,209.1855,0.00932811,0.03213900000000,1 50803U 22001A   24343.50001157  .00932811  00000-0  32139-1 0  9999,2 50803  53.2119  55.5144 0001154  77.1886 209.1855 15.27005349162837
2024-12-08 14:00:01.000224,50803,15.27140793,0.00012300,53.2120,55.1300,79.8812,304.8720,0.00965351,0.03303300000000,1 50803U 22001A   24343.58334491  .00965351  00000-0  33033-1 0  9996,2 50803  53.2120  55.1300 0001230  79.8812 304.8720 15.27140793  5756
2024-12-08 22:00:00.999936,50803,15.27757723,0.00011020,53.2118,53.5886,88.3059,330.3913,0.00914646,0.03085200000000,1 50803U 22001A   24343.91667824  .00914646  00000-0  30852-1 0  9999,2 50803  53.2118  53.5886 0001102  88.3059 330.3913 15.27757723  5801
2024-12-09 14:00:01.000224,50803,15.28921136,0.00010420,53.2118,50.5061,78.9443,49.8079,0.00983556,0.03183600000000,1 50803U 22001A   24344.58334491  .00983556  00000-0  31836-1 0  9993,2 50803  53.2118  50.5061 0001042  78.9443  49.8079 15.28921136  5793
2024-12-09 22:00:00.999936,50803,15.29543076,0.00010660,53.2116,48.9605,86.5871,78.2554,0.00932206,0.02973500000000,1 50803U 22001A   24344.91667824  .00932206  00000-0  29735-1 0  9990,2 50803  53.2116  48.9605 0001066  86.5871  78.2554 15.29543076163043
2024-12-10 14:00:01.000224,50803,15.30713952,0.00011490,53.2118,45.8698,72.9350,166.2743,0.00995899,0.03047900000000,1 50803U 22001A   24345.58334491  .00995899  00000-0  30479-1 0  9999,2 50803  53.2118  45.8698 0001149  72.9350 166.2743 15.30713952  5694
2024-12-10 22:00:00.999936,50803,15.31338047,0.00011050,53.2118,44.3199,81.3022,196.1585,0.00934312,0.02819400000000,1 50803U 22001A   24345.91667824  .00934312  00000-0  28194-1 0  9999,2 50803  53.2118  44.3199 0001105  81.3022 196.1585 15.31338047  5747
2024-12-11 04:00:01.999584,50803,15.31778788,0.00011050,53.2119,43.1573,89.1761,127.5128,0.00973907,0.02889300000000,1 50803U 22001A   24346.16668981  .00973907  00000-0  28893-1 0  9991,2 50803  53.2119  43.1573 0001105  89.1761 127.5128 15.31778788163237
2024-12-11 14:00:01.000224,50803,15.32508103,0.00012480,53.2120,41.2207,76.5769,279.5674,0.01004229,0.02905000000000,1 50803U 22001A   24346.58334491  .01004229  00000-0  29050-1 0  9992,2 50803  53.2120  41.2207 0001248  76.5769 279.5674 15.32508103  5847
2024-12-11 22:00:00.999936,50803,15.33133970,0.00011560,53.2121,39.6664,87.3919,309.1635,0.00937513,0.02674400000000,1 50803U 22001A   24346.91667824  .00937513  00000-0  26744-1 0  9995,2 50803  53.2121  39.6664 0001156  87.3919 309.1635 15.33133970163356
2024-12-12 14:00:01.000224,50803,15.34303068,0.00009200,53.2123,36.5589,69.1737,50.3847,0.01012544,0.02766600000000,1 50803U 22001A   24347.58334491  .01012544  00000-0  27666-1 0  9993,2 50803  53.2123  36.5589 0000920  69.1737  50.3847 15.34303068  5807
2024-12-12 22:00:00.999936,50803,15.34908168,0.00007310,53.2126,35.0004,77.4593,84.6762,0.01030754,0.02758700000000,1 50803U 22001A   24347.91667824  .01030754  00000-0  27587-1 0  9994,2 50803  53.2126  35.0004 0000731  77.4593  84.6762 15.34908168  5705
2024-12-13 04:00:01.999584,50803,15.35390622,0.00009020,53.2128,33.8315,83.2636,21.3400,0.01051568,0.02766900000000,1 50803U 22001A   24348.16668981  .01051568  00000-0  27669-1 0  9994,2 50803  53.2128  33.8315 0000902  83.2636  21.3400 15.35390622163546
2024-12-13 14:00:01.000224,50803,15.36180714,0.00011850,53.2128,31.8842,65.3022,184.2226,0.01105809,0.02824600000000,1 50803U 22001A   24348.58334491  .01105809  00000-0  28246-1 0  9996,2 50803  53.2128  31.8842 0001185  65.3022 184.2226 15.36180714  5802
2024-12-13 20:00:01.000224,50803,15.36712897,0.00010250,53.2129,30.7119,71.4248,121.6650,0.00991772,0.02514300000000,1 50803U 22001A   24348.83334491  .00991772  00000-0  25143-1 0  9998,2 50803  53.2129  30.7119 0001025  71.4248 121.6650 15.36712897163645
2024-12-14 14:00:01.000224,50803,15.38140919,0.00013190,53.2130,27.1956,66.8040,319.6570,0.01091172,0.02620300000000,1 50803U 22001A   24349.58334491  .01091172  00000-0  26203-1 0  9995,2 50803  53.2130  27.1956 0001319  66.8040 319.6570 15.38140919163765
2024-12-14 22:00:00.999936,50803,15.38791474,0.00010470,53.2131,25.6277,75.1588,358.5215,0.01070434,0.02521100000000,1 50803U 22001A   24349.91667824  .01070434  00000-0  25211-1 0  9997,2 50803  53.2131  25.6277 0001047  75.1588 358.5215 15.38791474  5843
2024-12-15 04:00:00.999936,50803,15.39306217,0.00013750,53.2132,24.4524,76.4734,303.1104,0.01034811,0.02403900000000,1 50803U 22001A   24350.16667824  .01034811  00000-0  24039-1 0  9992,2 50803  53.2132  24.4524 0001375  76.4734 303.1104 15.39306217163854
2024-12-15 14:00:01.000224,50803,15.40101184,0.00011810,53.2127,22.4929,58.0367,112.4009,0.01071229,0.02417300000000,1 50803U 22001A   24350.58334491  .01071229  00000-0  24173-1 0  9992,2 50803  53.2127  22.4929 0001181  58.0367 112.4009 15.40101184  5687
2024-12-15 22:00:00.999936,50803,15.40739913,0.00009830,53.2126,20.9203,67.5614,152.4434,0.01081891,0.02388500000000,1 50803U 22001A   24350.91667824  .01081891  00000-0  23885-1 0  9993,2 50803  53.2126  20.9203 0000983  67.5614 152.4434 15.40739913  5732
2024-12-16 04:00:01.999584,50803,15.41267552,0.00010150,53.2127,19.7418,74.4802,93.2513,0.01009614,0.02203600000000,1 50803U 22001A   24351.16668981  .01009614  00000-0  22036-1 0  9996,2 50803  53.2127  19.7418 0001015  74.4802  93.2513 15.41267552164002
2024-12-16 14:00:01.999872,50803,15.42041876,0.00011480,53.2119,17.7762,64.1777,257.3419,0.01149234,0.02416900000000,1 50803U 22001A   24351.58335648  .01149234  00000-0  24169-1 0  9995,2 50803  53.2119  17.7762 0001148  64.1777 257.3419 15.42041876  5830
2024-12-16 20:00:01.000224,50803,15.42561621,0.00009620,53.2120,16.5934,75.4419,194.8772,0.01165117,0.02405100000000,1 50803U 22001A   24351.83334491  .01165117  00000-0  24051-1 0  9996,2 50803  53.2120  16.5934 0000962  75.4419 194.8772 15.42561621164109
2024-12-16 22:00:00.999936,50803,15.42728173,0.00010220,53.2118,16.1990,81.8481,291.5303,0.01202616,0.02461200000000,1 50803U 22001A   24351.91667824  .01202616  00000-0  24612-1 0  9993,2 50803  53.2118  16.1990 0001022  81.8481 291.5303 15.42728173  5849
2024-12-17 14:00:01.000224,50803,15.44189781,0.00010230,53.2115,13.0451,69.9622,49.8033,0.01157915,0.02264700000000,1 50803U 22001A   24352.58334491  .01157915  00000-0  22647-1 0  9995,2 50803  53.2115  13.0451 0001023  69.9622  49.8033 15.44189781  5683
2024-12-17 20:00:01.000224,50803,15.44709556,0.00008470,53.2119,11.8584,76.2407,354.3287,0.01182020,0.02267100000000,1 50803U 22001A   24352.83334491  .01182020  00000-0  22671-1 0  9995,2 50803  53.2119  11.8584 0000847  76.2407 354.3287 15.44709556164268
2024-12-17 22:00:00.999936,50803,15.44887354,0.00007820,53.2117,11.4628,77.9408,96.3308,0.01193250,0.02272800000000,1 50803U 22001A   24352.91667824  .01193250  00000-0  22728-1 0  9993,2 50803  53.2117  11.4628 0000782  77.9408  96.3308 15.44887354  5734
2024-12-18 14:00:01.000224,50803,15.46350650,0.00013500,53.2119,8.2984,69.1116,216.7226,0.01146625,0.02086000000000,1 50803U 22001A   24353.58334491  .01146625  00000-0  20860-1 0  9997,2 50803  53.2119   8.2984 0001350  69.1116 216.7226 15.46350650  5841
2024-12-18 22:00:01.999584,50803,15.47038375,0.00013330,53.2123,6.7108,80.8560,262.1409,0.01210164,0.02139200000000,1 50803U 22001A   24353.91668981  .01210164  00000-0  21392-1 0  9999,2 50803  53.2123   6.7108 0001333  80.8560 262.1409 15.47038375164438
2024-12-19 06:00:00.999648,50803,15.47792684,0.00012450,53.2126,5.1250,76.8461,324.0241,0.01118012,0.01940000000000,1 50803U 22001A   24354.25001157  .01118012  00000-0  19400-1 0  9999,2 50803  53.2126   5.1250 0001245  76.8461 324.0241 15.47792684  5794
2024-12-19 10:00:00.999936,50803,15.48119162,0.00011360,53.2128,4.3315,61.8210,188.3574,0.01196425,0.02039700000000,1 50803U 22001A   24354.41667824  .01196425  00000-0  20397-1 0  9997,2 50803  53.2128   4.3315 0001136  61.8210 188.3574 15.48119162164504
2024-12-19 14:00:01.000224,50803,15.48501682,0.00010830,53.2125,3.5363,68.5317,31.1489,0.01150082,0.01942100000000,1 50803U 22001A   24354.58334491  .01150082  00000-0  19421-1 0  9991,2 50803  53.2125   3.5363 0001083  68.5317  31.1489 15.48501682  5841
